<?xml version="1.0" encoding="UTF-8"?>
<gpx creator="dartmoorwalking.org" xmlns:xsd="http://www.w3.org/2001/XMLSchema" xmlns:xsi="http://www.w3.org/2001/XMLSchema-instance" version="1.1" xsi:schemaLocation="http://www.topografix.com/GPX/1/1 http://www.topografix.com/GPX/1/1/gpx.xsd" xmlns="http://www.topografix.com/GPX/1/1">
	<metadata>
		<name>dartmoorwalking.org</name>
		<desc>Route file exported from dartmoorwalking.org - please see the corresponding web page for this walk</desc>
		<author>
			<name>Simon Avery</name>
		</author>
		<time>2026-08-28T19:16:09.814Z</time>
	</metadata>
	<wpt lat="50.55854220497672" lon="-3.964927196502686">
		<name>P0</name>
		<type>Waypoint</type>
	</wpt>
	<wpt lat="50.55922379171412" lon="-3.964626789093018">
		<name>P1</name>
		<type>Waypoint</type>
	</wpt>
	<wpt lat="50.55958502868862" lon="-3.962234258651734">
		<name>P2</name>
		<type>Waypoint</type>
	</wpt>
	<wpt lat="50.561302570387035" lon="-3.9613652229309086">
		<name>P3</name>
		<type>Waypoint</type>
	</wpt>
	<wpt lat="50.562120425386766" lon="-3.9614939689636235">
		<name>P4</name>
		<type>Waypoint</type>
	</wpt>
	<wpt lat="50.56562341037306" lon="-3.960592746734619">
		<name>P5</name>
		<type>Waypoint</type>
	</wpt>
	<wpt lat="50.56582104184353" lon="-3.959004878997803">
		<name>P6</name>
		<type>Waypoint</type>
	</wpt>
	<wpt lat="50.565568891200826" lon="-3.9575457572937016">
		<name>P7</name>
		<type>Waypoint</type>
	</wpt>
	<wpt lat="50.5648533212184" lon="-3.956462144851685">
		<name>P8</name>
		<type>Waypoint</type>
	</wpt>
	<wpt lat="50.5647374660087" lon="-3.955990076065064">
		<name>P9</name>
		<type>Waypoint</type>
	</wpt>
	<wpt lat="50.5651327355523" lon="-3.9553999900817876">
		<name>P10</name>
		<type>Waypoint</type>
	</wpt>
	<wpt lat="50.56601185764923" lon="-3.9556467533111577">
		<name>P11</name>
		<type>Waypoint</type>
	</wpt>
	<wpt lat="50.567885900392405" lon="-3.955614566802979">
		<name>P12</name>
		<type>Waypoint</type>
	</wpt>
	<wpt lat="50.56940552396249" lon="-3.955464363098145">
		<name>P13</name>
		<type>Waypoint</type>
	</wpt>
	<wpt lat="50.57055713429065" lon="-3.955689668655396">
		<name>P14</name>
		<type>Waypoint</type>
	</wpt>
	<wpt lat="50.5721448112484" lon="-3.9558506011962895">
		<name>P15</name>
		<type>Waypoint</type>
	</wpt>
	<wpt lat="50.57356209139927" lon="-3.956108093261719">
		<name>P16</name>
		<type>Waypoint</type>
	</wpt>
	<wpt lat="50.57393684584959" lon="-3.955764770507813">
		<name>P17</name>
		<type>Waypoint</type>
	</wpt>
	<wpt lat="50.57533363162676" lon="-3.955281972885132">
		<name>P18</name>
		<type>Waypoint</type>
	</wpt>
	<wpt lat="50.577214116815725" lon="-3.9560759067535405">
		<name>P19</name>
		<type>Waypoint</type>
	</wpt>
	<wpt lat="50.57768422638266" lon="-3.955861330032349">
		<name>P20</name>
		<type>Waypoint</type>
	</wpt>
	<wpt lat="50.577861367900894" lon="-3.9562690258026127">
		<name>P21</name>
		<type>Waypoint</type>
	</wpt>
	<wpt lat="50.57766378693383" lon="-3.9576959609985356">
		<name>P22</name>
		<type>Waypoint</type>
	</wpt>
	<wpt lat="50.577731918395415" lon="-3.9605498313903813">
		<name>P23</name>
		<type>Waypoint</type>
	</wpt>
	<wpt lat="50.58069554158799" lon="-3.9613437652587895">
		<name>P24</name>
		<type>Waypoint</type>
	</wpt>
	<wpt lat="50.58286874674231" lon="-3.9616656303405766">
		<name>P25</name>
		<type>Waypoint</type>
	</wpt>
	<wpt lat="50.58374753790466" lon="-3.962781429290772">
		<name>P26</name>
		<type>Waypoint</type>
	</wpt>
	<wpt lat="50.58372710108715" lon="-3.96308183670044">
		<name>P27</name>
		<type>Waypoint</type>
	</wpt>
	<wpt lat="50.583093555344846" lon="-3.9621162414550786">
		<name>P28</name>
		<type>Waypoint</type>
	</wpt>
	<wpt lat="50.58253153182624" lon="-3.9617246389389043">
		<name>P29</name>
		<type>Waypoint</type>
	</wpt>
	<wpt lat="50.580872671780675" lon="-3.9614456892013554">
		<name>P30</name>
		<type>Waypoint</type>
	</wpt>
	<wpt lat="50.58015052143193" lon="-3.9612686634063725">
		<name>P31</name>
		<type>Waypoint</type>
	</wpt>
	<wpt lat="50.5788731057264" lon="-3.960919976234436">
		<name>P32</name>
		<type>Waypoint</type>
	</wpt>
	<wpt lat="50.577677413234056" lon="-3.9605981111526494">
		<name>P33</name>
		<type>Waypoint</type>
	</wpt>
	<wpt lat="50.57743213922731" lon="-3.960807323455811">
		<name>P34</name>
		<type>Waypoint</type>
	</wpt>
	<wpt lat="50.576767849045126" lon="-3.9604479074478154">
		<name>P35</name>
		<type>Waypoint</type>
	</wpt>
	<wpt lat="50.5763352037348" lon="-3.960104584693909">
		<name>P36</name>
		<type>Waypoint</type>
	</wpt>
	<wpt lat="50.57567771152104" lon="-3.9601635932922368">
		<name>P37</name>
		<type>Waypoint</type>
	</wpt>
	<wpt lat="50.57520758192753" lon="-3.9603459835052495">
		<name>P38</name>
		<type>Waypoint</type>
	</wpt>
	<wpt lat="50.57470337975767" lon="-3.960431814193726">
		<name>P39</name>
		<type>Waypoint</type>
	</wpt>
	<wpt lat="50.57202556698336" lon="-3.9601260423660283">
		<name>P40</name>
		<type>Waypoint</type>
	</wpt>
	<wpt lat="50.57132713022699" lon="-3.960109949111939">
		<name>P41</name>
		<type>Waypoint</type>
	</wpt>
	<wpt lat="50.569787125769494" lon="-3.96058738231659">
		<name>P42</name>
		<type>Waypoint</type>
	</wpt>
	<wpt lat="50.56781434740175" lon="-3.961429595947266">
		<name>P43</name>
		<type>Waypoint</type>
	</wpt>
	<wpt lat="50.56676148369082" lon="-3.9617460966110234">
		<name>P44</name>
		<type>Waypoint</type>
	</wpt>
	<wpt lat="50.56585852358064" lon="-3.9613491296768193">
		<name>P45</name>
		<type>Waypoint</type>
	</wpt>
	<wpt lat="50.565504149601914" lon="-3.961510062217713">
		<name>P46</name>
		<type>Waypoint</type>
	</wpt>
	<wpt lat="50.56512251310587" lon="-3.96233081817627">
		<name>P47</name>
		<type>Waypoint</type>
	</wpt>
	<wpt lat="50.565023696009355" lon="-3.9631891250610356">
		<name>P48</name>
		<type>Waypoint</type>
	</wpt>
	<wpt lat="50.564522792367214" lon="-3.9637845754623418">
		<name>P49</name>
		<type>Waypoint</type>
	</wpt>
	<wpt lat="50.56401506827586" lon="-3.9639723300933842">
		<name>P50</name>
		<type>Waypoint</type>
	</wpt>
	<wpt lat="50.56276106855643" lon="-3.96433174610138">
		<name>P51</name>
		<type>Waypoint</type>
	</wpt>
	<wpt lat="50.5614627347754" lon="-3.9645195007324223">
		<name>P52</name>
		<type>Waypoint</type>
	</wpt>
	<wpt lat="50.560365427417594" lon="-3.964498043060303">
		<name>P53</name>
		<type>Waypoint</type>
	</wpt>
	<wpt lat="50.55934647628009" lon="-3.9649647474288945">
		<name>P54</name>
		<type>Waypoint</type>
	</wpt>
	<wpt lat="50.55849108557409" lon="-3.9650613069534306">
		<name>P55</name>
		<type>Waypoint</type>
	</wpt>
	<rte>
		<name>dartmoorwalking.orged route</name>
		<src>Manual entry</src>
		<number>1</number>
		<rtept lat="50.55854220497672" lon="-3.964927196502686">
			<name>P0</name>
			<type>Waypoint</type>
		</rtept>
		<rtept lat="50.55922379171412" lon="-3.964626789093018">
			<name>P1</name>
			<type>Waypoint</type>
		</rtept>
		<rtept lat="50.55958502868862" lon="-3.962234258651734">
			<name>P2</name>
			<type>Waypoint</type>
		</rtept>
		<rtept lat="50.561302570387035" lon="-3.9613652229309086">
			<name>P3</name>
			<type>Waypoint</type>
		</rtept>
		<rtept lat="50.562120425386766" lon="-3.9614939689636235">
			<name>P4</name>
			<type>Waypoint</type>
		</rtept>
		<rtept lat="50.56562341037306" lon="-3.960592746734619">
			<name>P5</name>
			<type>Waypoint</type>
		</rtept>
		<rtept lat="50.56582104184353" lon="-3.959004878997803">
			<name>P6</name>
			<type>Waypoint</type>
		</rtept>
		<rtept lat="50.565568891200826" lon="-3.9575457572937016">
			<name>P7</name>
			<type>Waypoint</type>
		</rtept>
		<rtept lat="50.5648533212184" lon="-3.956462144851685">
			<name>P8</name>
			<type>Waypoint</type>
		</rtept>
		<rtept lat="50.5647374660087" lon="-3.955990076065064">
			<name>P9</name>
			<type>Waypoint</type>
		</rtept>
		<rtept lat="50.5651327355523" lon="-3.9553999900817876">
			<name>P10</name>
			<type>Waypoint</type>
		</rtept>
		<rtept lat="50.56601185764923" lon="-3.9556467533111577">
			<name>P11</name>
			<type>Waypoint</type>
		</rtept>
		<rtept lat="50.567885900392405" lon="-3.955614566802979">
			<name>P12</name>
			<type>Waypoint</type>
		</rtept>
		<rtept lat="50.56940552396249" lon="-3.955464363098145">
			<name>P13</name>
			<type>Waypoint</type>
		</rtept>
		<rtept lat="50.57055713429065" lon="-3.955689668655396">
			<name>P14</name>
			<type>Waypoint</type>
		</rtept>
		<rtept lat="50.5721448112484" lon="-3.9558506011962895">
			<name>P15</name>
			<type>Waypoint</type>
		</rtept>
		<rtept lat="50.57356209139927" lon="-3.956108093261719">
			<name>P16</name>
			<type>Waypoint</type>
		</rtept>
		<rtept lat="50.57393684584959" lon="-3.955764770507813">
			<name>P17</name>
			<type>Waypoint</type>
		</rtept>
		<rtept lat="50.57533363162676" lon="-3.955281972885132">
			<name>P18</name>
			<type>Waypoint</type>
		</rtept>
		<rtept lat="50.577214116815725" lon="-3.9560759067535405">
			<name>P19</name>
			<type>Waypoint</type>
		</rtept>
		<rtept lat="50.57768422638266" lon="-3.955861330032349">
			<name>P20</name>
			<type>Waypoint</type>
		</rtept>
		<rtept lat="50.577861367900894" lon="-3.9562690258026127">
			<name>P21</name>
			<type>Waypoint</type>
		</rtept>
		<rtept lat="50.57766378693383" lon="-3.9576959609985356">
			<name>P22</name>
			<type>Waypoint</type>
		</rtept>
		<rtept lat="50.577731918395415" lon="-3.9605498313903813">
			<name>P23</name>
			<type>Waypoint</type>
		</rtept>
		<rtept lat="50.58069554158799" lon="-3.9613437652587895">
			<name>P24</name>
			<type>Waypoint</type>
		</rtept>
		<rtept lat="50.58286874674231" lon="-3.9616656303405766">
			<name>P25</name>
			<type>Waypoint</type>
		</rtept>
		<rtept lat="50.58374753790466" lon="-3.962781429290772">
			<name>P26</name>
			<type>Waypoint</type>
		</rtept>
		<rtept lat="50.58372710108715" lon="-3.96308183670044">
			<name>P27</name>
			<type>Waypoint</type>
		</rtept>
		<rtept lat="50.583093555344846" lon="-3.9621162414550786">
			<name>P28</name>
			<type>Waypoint</type>
		</rtept>
		<rtept lat="50.58253153182624" lon="-3.9617246389389043">
			<name>P29</name>
			<type>Waypoint</type>
		</rtept>
		<rtept lat="50.580872671780675" lon="-3.9614456892013554">
			<name>P30</name>
			<type>Waypoint</type>
		</rtept>
		<rtept lat="50.58015052143193" lon="-3.9612686634063725">
			<name>P31</name>
			<type>Waypoint</type>
		</rtept>
		<rtept lat="50.5788731057264" lon="-3.960919976234436">
			<name>P32</name>
			<type>Waypoint</type>
		</rtept>
		<rtept lat="50.577677413234056" lon="-3.9605981111526494">
			<name>P33</name>
			<type>Waypoint</type>
		</rtept>
		<rtept lat="50.57743213922731" lon="-3.960807323455811">
			<name>P34</name>
			<type>Waypoint</type>
		</rtept>
		<rtept lat="50.576767849045126" lon="-3.9604479074478154">
			<name>P35</name>
			<type>Waypoint</type>
		</rtept>
		<rtept lat="50.5763352037348" lon="-3.960104584693909">
			<name>P36</name>
			<type>Waypoint</type>
		</rtept>
		<rtept lat="50.57567771152104" lon="-3.9601635932922368">
			<name>P37</name>
			<type>Waypoint</type>
		</rtept>
		<rtept lat="50.57520758192753" lon="-3.9603459835052495">
			<name>P38</name>
			<type>Waypoint</type>
		</rtept>
		<rtept lat="50.57470337975767" lon="-3.960431814193726">
			<name>P39</name>
			<type>Waypoint</type>
		</rtept>
		<rtept lat="50.57202556698336" lon="-3.9601260423660283">
			<name>P40</name>
			<type>Waypoint</type>
		</rtept>
		<rtept lat="50.57132713022699" lon="-3.960109949111939">
			<name>P41</name>
			<type>Waypoint</type>
		</rtept>
		<rtept lat="50.569787125769494" lon="-3.96058738231659">
			<name>P42</name>
			<type>Waypoint</type>
		</rtept>
		<rtept lat="50.56781434740175" lon="-3.961429595947266">
			<name>P43</name>
			<type>Waypoint</type>
		</rtept>
		<rtept lat="50.56676148369082" lon="-3.9617460966110234">
			<name>P44</name>
			<type>Waypoint</type>
		</rtept>
		<rtept lat="50.56585852358064" lon="-3.9613491296768193">
			<name>P45</name>
			<type>Waypoint</type>
		</rtept>
		<rtept lat="50.565504149601914" lon="-3.961510062217713">
			<name>P46</name>
			<type>Waypoint</type>
		</rtept>
		<rtept lat="50.56512251310587" lon="-3.96233081817627">
			<name>P47</name>
			<type>Waypoint</type>
		</rtept>
		<rtept lat="50.565023696009355" lon="-3.9631891250610356">
			<name>P48</name>
			<type>Waypoint</type>
		</rtept>
		<rtept lat="50.564522792367214" lon="-3.9637845754623418">
			<name>P49</name>
			<type>Waypoint</type>
		</rtept>
		<rtept lat="50.56401506827586" lon="-3.9639723300933842">
			<name>P50</name>
			<type>Waypoint</type>
		</rtept>
		<rtept lat="50.56276106855643" lon="-3.96433174610138">
			<name>P51</name>
			<type>Waypoint</type>
		</rtept>
		<rtept lat="50.5614627347754" lon="-3.9645195007324223">
			<name>P52</name>
			<type>Waypoint</type>
		</rtept>
		<rtept lat="50.560365427417594" lon="-3.964498043060303">
			<name>P53</name>
			<type>Waypoint</type>
		</rtept>
		<rtept lat="50.55934647628009" lon="-3.9649647474288945">
			<name>P54</name>
			<type>Waypoint</type>
		</rtept>
		<rtept lat="50.55849108557409" lon="-3.9650613069534306">
			<name>P55</name>
			<type>Waypoint</type>
		</rtept>
	</rte>
</gpx>
